#dP2020  9 27  0  0  0.00000000      97 __u+U IGS14 FIT  IAC
## 2125      0.00000000   900.00000000 59119 0.0000000000000
+  120   C01C02C03C04C05C06C07C08C09C10C11C12C13C14C16C19C20
+        C21C22C23C24C25C26C27C28C29C30C32C33C34C35C36C37C38
+        C39C40C43C44C45C46E01E02E03E04E05E07E08E09E11E12E13
+        E14E15E18E19E21E24E25E26E27E30E31E33E36G01G02G03G04
+        G05G06G07G08G09G10G11G12G13G15G16G17G18G19G20G21G22
+        G24G25G26G27G28G29G30G31G32J01J02J03J07R01R02R03R04
+        R05R07R08R11R12R13R14R15R16R17R18R19R20R21R22R23R24
+        R26  0  0  0  0  0  0  0  0  0  0  0  0  0  0  0  0
++        13 12 13 12 12  8  8  8  8  8  7  7  7  7  9  7  7
++         7  7  8  7  7  7  7  7  7  7  8  7  7  7  8  8  9
++         9  9  9  8  8  9  4  4  4  4  4  4  4  4  4  4  4
++         4  4  4  4  4  4  4  4  4  4  4  4  4  3  3  3  3
++         3  3  3  3  3  3  3  3  3  4  3  3  3  3  3  3  3
++         3  3  3  3  3  3  3  3  3  9 10  9 13  6  5  5  5
++         5  5  5  5  5  6  5  5  6  5  5  6  6  5  6  5  5
++         7  0  0  0  0  0  0  0  0  0  0  0  0  0  0  0  0
%c M  cc GPS ccc cccc cccc cccc cccc ccccc ccccc ccccc ccccc
%c cc cc ccc ccc cccc cccc cccc cccc ccccc ccccc ccccc ccccc
%f  1.2500000  1.025000000  0.00000000000  0.000000000000000
%f  0.0000000  0.000000000  0.00000000000  0.000000000000000
%i    0    0    0    0      0      0      0      0         0
%i    0    0    0    0      0      0      0      0         0
/* INFORMATION & ANALYSIS CENTER (IAC)            FINAL DATA
/* S/V CLOCKS ARE ALIGNED TO GNSS TIME                      
/* G:C1WC2W R:C1PC2P E:C1XC5X C:C2IC6I J:C1CC2S             
/* PCV:IGS14_2118 OL/AL:FES2004  NONE     YN ORB:CoN CLK:CoN
*  2020 09 27  6 15  0.00000000
PC01 -34337.656601  24420.494191   -449.030323   -100.831086
PC02   4376.935959  41949.361064    974.610140    808.748884
PC03 -14780.186425  39509.201027    748.731095    797.135833
PC04 -39621.712940  14401.194581   -275.147873   -112.225565
PC05  21945.951962  35986.439689   1237.933105   -541.854761
PC06 -10251.007905  35535.537667  21062.372782     16.931004
PC07 -16751.504924  21634.291001 -31912.958375    -48.292341
PC08 -24934.633126  31004.100398  13455.520967   -558.249465
PC09  -1061.725829  41769.311554   7340.663683    836.307027
PC10   -434.831917  26783.484539 -32284.001293   -177.220875
PC11 -13565.169844  15208.837876 -18976.850249   -647.216474
PC12 -14782.804023  -5597.972000 -22968.413702    528.642095
PC13 -12439.496642  31757.498804  24663.412654    667.406135
PC14 -18169.642470   5356.353746  20529.512454    226.690596
PC16  -6990.269957  37536.001717  18177.312313   -591.244669
PC19   9752.324414 -12608.264995 -22888.072933    560.997067
PC20  22969.937005   1765.708856 -15720.782128   -849.038545
PC21 -23021.730851 -15750.492563  -1139.235549   -685.153580
PC22  -9447.112371 -20074.815196 -16948.113608   -768.045759
PC23   -953.586935  17669.508656 -21563.834271   -874.370574
PC24 -25943.190953   6976.134955   7512.489426   -724.189701
PC25 -18360.125937  18209.101741 -10466.235677   -770.982792
PC26 -18218.974957  -6506.949629  20099.166503    845.456522
PC27  12268.015414  15955.545239  19317.598849    405.904346
PC28   1474.641190  27434.833029   4848.672429   -165.279948
PC29   9281.808155 -23213.758862  12397.368930    289.466157
PC30  15726.343532  -4983.468449  22502.556855    381.542498
PC32  23106.705936  15594.834761   1182.063796   -904.823136
PC33  -9822.240808  12612.914620  22872.240539   -802.113959
PC34 -15731.860587   5620.555650 -22362.441197   -845.337436
PC35  -2279.969276 -27412.215668  -4623.722563   -634.885514
PC36  18961.573052 -17723.847511  10280.975794   -902.987724
PC37  17526.481352   7411.611101 -20389.369374   -913.607022
PC38 -21619.768426  32523.391567  15699.640037    102.821379
PC39  -3462.424897  38457.835218  17068.231388     22.995685
PC40  -3177.155301  22501.364477 -35482.648331     85.194182
PC43  -9679.268964  22916.576684 -12665.107863   -390.861246
PC44 -12833.826788 -15696.261809 -19168.672710 999999.999999
PC45    922.405900 -17577.777993  21672.550968    241.198717
PC46  25962.486525  -7606.780312  -6896.472008    619.653277
PE01 -29579.475885    928.069997   -611.731980   -949.327819
PE02  29579.327487  -1017.038825    743.289010    164.626834
PE03  20098.258631   4003.170754 -21358.188946   -347.361949
PE04  -9654.595831  15721.798801  23147.848732   -615.412207
PE05  18901.490052  21672.893890  -7007.082775   -342.689752
PE07  -6683.257633 -26533.708750 -11304.561586   -441.292108
PE08   9234.977905 -15947.129051 -23169.606414   6114.834599
PE09   6979.449467  26463.279027  11254.897644   5917.626772
PE11  -4587.022002  26284.499241  12811.233554   5805.826173
PE12 -17239.437722  23210.348648  -6361.827577   5585.255940
PE13   4731.923721 -26361.884821 -12608.441142    403.933454
PE14  -4013.672430  25783.282242 -12245.944337  -1170.190402
PE15  17062.544991 -23381.850753   6215.488765    850.896087
PE18  -8792.306859 -27352.836011  -3018.338471  -1278.496992
PE19 -20518.837122  -6391.812050  20354.950893     88.680490
PE21 -22030.959274 -10702.893486  16630.931144   -623.638219
PE24    881.571237  16516.818759 -24549.065963   5222.569920
PE25  21916.522653  10762.982684 -16717.550480   -517.258180
PE26 -10806.073922 -13480.760534 -24036.214970   2679.380606
PE27  -1450.000475 -16450.069534  24578.004944    125.503971
PE30  20408.581482 -12191.469554  17643.373048   3551.866394
PE31 -19870.548506  12488.869753 -18023.212505   -474.409281
PE33 -19356.963420   6656.414172 -21377.439816   -462.644599
PE36  10376.784731  13846.141581  24015.840103    502.090525
PG01  13273.196264 -21600.398397  -7563.309431     35.252704
PG02 -20130.071066  12194.654671 -11637.286056   -521.969102
PG03   6365.691765 -13960.054663 -21753.601510   -310.466889
PG04   2240.246088 -23527.309632 -12073.569649   -139.230576
PG05 -24101.416912   3203.116498  10761.332577    -22.043314
PG06 -16377.295540  -2653.003773 -20696.649121   -329.027666
PG07  -1770.429722 -18242.469637  19373.037468   -381.257563
PG08   8818.706182 -15752.102692  19401.833596    -49.419351
PG09  -7522.593242 -25438.437158  -1183.706998   -291.995716
PG10  21880.057776  11784.876134   9810.192843   -465.133430
PG11  11662.978824 -22989.490480   6642.527879   -152.974914
PG12  -9018.097129  12646.568793 -21757.782902     61.789982
PG13 -13804.161258   6841.442455  21495.936225     49.156607
PG15  -7301.688949  17360.108142  18247.798136   -200.888021
PG16  23465.354935  -1394.564105  12573.511171   -214.595775
PG17 -14114.907141 -16929.944894 -14422.004515    331.709875
PG18   1940.192517  17659.307507  19716.732693    297.469075
PG19 -15342.652123  -9964.837083 -19571.673921    -99.448839
PG20  12374.946683  14652.760677  18396.213873    526.602161
PG21  20628.898146 -11365.445322  12723.112311     51.585104
PG22  14533.925655 -11953.473588 -18490.504948   -750.009389
PG24 -14086.616943  21968.699755  -3875.496576    -19.062369
PG25   4510.074800  15978.907226 -21023.886037     55.060524
PG26  26254.138460   4808.390926     84.714480    285.695609
PG27  14341.993232  -3626.734884  21918.498403   -405.163950
PG28 -21346.145977 -13271.961834   8906.925490    674.259526
PG29   3447.118866  26012.539249  -3990.774480   -203.428383
PG30 -10921.017017 -11331.880335  21442.313873   -309.372936
PG31  18207.025621    982.022786 -19518.637763    -71.293900
PG32  15849.940041  15392.005419 -14764.598902    351.180262
PJ01 -25938.027806  21874.597919  29987.158336   -344.080450
PJ02 -34931.803501  17128.602733 -11693.132214     -4.275451
PJ03 -20739.326850  28994.738075 -17898.844953     -1.451507
PJ07 -25397.166640  33652.222580     33.064788      0.082832
PR01  -1521.827003  12938.741509  21923.479374     68.177522
PR02  15236.047704  19253.701566   7061.835434    447.395956
PR03  19920.718720  12141.824376 -10341.249936     22.749327
PR04  13109.145672  -1648.741385 -21800.120381     55.964915
PR05   -955.427180 -14502.882638 -20950.935695     58.289758
PR07 -19832.694168 -11657.363713  11002.969704    -40.403596
PR08 -13178.864497   1776.120603  21811.483179    -54.810061
PR11 -23049.246436   9645.916308  -5241.775443    -39.098435
PR12 -11020.513940  12773.017191 -19091.143115    167.126970
PR13   7763.446426   8879.860636 -22624.377539    -44.416425
PR14  22165.068420   -300.001609 -12586.214024     55.970564
PR15  23387.253893  -9154.516633   4483.378687    107.001532
PR16  10099.523514 -13150.628547  19415.597264     -6.721670
PR17   9622.677632   4913.393887  23110.138771    361.514144
PR18  11814.536594 -12912.560350  18549.986889     50.776706
PR19   8594.782347 -23579.128375   4604.904226   -112.932753
PR20   -940.862092 -20906.497506 -14556.076529   -422.766033
PR21  -9822.989468  -3884.928898 -23220.885892   -155.037455
PR22 -11777.236083  14078.846211 -17770.950997    -74.842276
PR23  -4996.461084  24847.635968   2828.524625    334.651361
PR24   1830.079701  20540.888096  15010.892370     14.765715
PR26   1413.531819 -23519.607053  -9808.083818   -360.624277
EOF
